[{"OBJECT_NAME":"STARLINK-32480","OBJECT_ID":"2024-216H","EPOCH":"2025-10-29T15:46:38.399232","MEAN_MOTION":15.27616153,"ECCENTRICITY":0.00020803,"INCLINATION":43.0035,"RA_OF_ASC_NODE":276.525,"ARG_OF_PERICENTER":289.4858,"MEAN_ANOMALY":70.5769,"EPHEMERIS_TYPE":0,"CLASSIFICATION_TYPE":"U","NORAD_CAT_ID":62039,"ELEMENT_SET_NO":999,"REV_AT_EPOCH":5267,"BSTAR":0.0011727724,"MEAN_MOTION_DOT":0.00032187,"MEAN_MOTION_DDOT":0},{"OBJECT_NAME":"STARLINK-32510","OBJECT_ID":"2024-216J","EPOCH":"2025-10-30T05:04:45.902496","MEAN_MOTION":15.27596682,"ECCENTRICITY":0.00010991,"INCLINATION":43.0025,"RA_OF_ASC_NODE":280.7262,"ARG_OF_PERICENTER":246.7534,"MEAN_ANOMALY":113.3202,"EPHEMERIS_TYPE":0,"CLASSIFICATION_TYPE":"U","NORAD_CAT_ID":62040,"ELEMENT_SET_NO":999,"REV_AT_EPOCH":5383,"BSTAR":0.0011299433,"MEAN_MOTION_DOT":0.00030978,"MEAN_MOTION_DDOT":0},{"OBJECT_NAME":"STARLINK-32456","OBJECT_ID":"2024-216K","EPOCH":"2025-10-29T15:52:12.064800","MEAN_MOTION":15.27608561,"ECCENTRICITY":0.00017828,"INCLINATION":43.0026,"RA_OF_ASC_NODE":276.5563,"ARG_OF_PERICENTER":280.2915,"MEAN_ANOMALY":79.7736,"EPHEMERIS_TYPE":0,"CLASSIFICATION_TYPE":"U","NORAD_CAT_ID":62041,"ELEMENT_SET_NO":999,"REV_AT_EPOCH":5383,"BSTAR":0.0010207033,"MEAN_MOTION_DOT":0.00027957,"MEAN_MOTION_DDOT":0},{"OBJECT_NAME":"STARLINK-32509","OBJECT_ID":"2024-216L","EPOCH":"2025-10-30T07:09:42.452928","MEAN_MOTION":15.27601376,"ECCENTRICITY":0.00012086,"INCLINATION":43.0025,"RA_OF_ASC_NODE":272.7377,"ARG_OF_PERICENTER":276.2822,"MEAN_ANOMALY":83.7892,"EPHEMERIS_TYPE":0,"CLASSIFICATION_TYPE":"U","NORAD_CAT_ID":62042,"ELEMENT_SET_NO":999,"REV_AT_EPOCH":5393,"BSTAR":0.0014576848,"MEAN_MOTION_DOT":0.00040095,"MEAN_MOTION_DDOT":0},{"OBJECT_NAME":"STARLINK-32491","OBJECT_ID":"2024-216M","EPOCH":"2025-10-30T04:59:12.904800","MEAN_MOTION":15.27599044,"ECCENTRICITY":0.00014032,"INCLINATION":43.0023,"RA_OF_ASC_NODE":280.7017,"ARG_OF_PERICENTER":260.8469,"MEAN_ANOMALY":99.2224,"EPHEMERIS_TYPE":0,"CLASSIFICATION_TYPE":"U","NORAD_CAT_ID":62043,"ELEMENT_SET_NO":999,"REV_AT_EPOCH":5383,"BSTAR":0.0017671006,"MEAN_MOTION_DOT":0.00048715,"MEAN_MOTION_DDOT":0},{"OBJECT_NAME":"STARLINK-32577","OBJECT_ID":"2024-216N","EPOCH":"2025-10-30T05:50:48.424128","MEAN_MOTION":15.27590082,"ECCENTRICITY":0.00012329,"INCLINATION":43.0018,"RA_OF_ASC_NODE":280.102,"ARG_OF_PERICENTER":124.8995,"MEAN_ANOMALY":235.1972,"EPHEMERIS_TYPE":0,"CLASSIFICATION_TYPE":"U","NORAD_CAT_ID":62044,"ELEMENT_SET_NO":999,"REV_AT_EPOCH":5385,"BSTAR":0.0015915387,"MEAN_MOTION_DOT":0.00043807,"MEAN_MOTION_DDOT":0},{"OBJECT_NAME":"STARLINK-32618","OBJECT_ID":"2024-216P","EPOCH":"2025-10-29T15:44:47.844384","MEAN_MOTION":15.27618733,"ECCENTRICITY":0.00016197,"INCLINATION":43.0021,"RA_OF_ASC_NODE":276.5123,"ARG_OF_PERICENTER":284.7371,"MEAN_ANOMALY":75.3301,"EPHEMERIS_TYPE":0,"CLASSIFICATION_TYPE":"U","NORAD_CAT_ID":62045,"ELEMENT_SET_NO":999,"REV_AT_EPOCH":5383,"BSTAR":0.0012778051,"MEAN_MOTION_DOT":0.0003511,"MEAN_MOTION_DDOT":0},{"OBJECT_NAME":"STARLINK-32598","OBJECT_ID":"2024-216Q","EPOCH":"2025-10-29T23:57:34.325280","MEAN_MOTION":15.27619053,"ECCENTRICITY":0.00014552,"INCLINATION":43.0009,"RA_OF_ASC_NODE":273.9209,"ARG_OF_PERICENTER":269.8021,"MEAN_ANOMALY":90.2664,"EPHEMERIS_TYPE":0,"CLASSIFICATION_TYPE":"U","NORAD_CAT_ID":62046,"ELEMENT_SET_NO":999,"REV_AT_EPOCH":5389,"BSTAR":0.0019385593,"MEAN_MOTION_DOT":0.00053535,"MEAN_MOTION_DDOT":0},{"OBJECT_NAME":"STARLINK-32630","OBJECT_ID":"2024-216R","EPOCH":"2025-10-29T16:00:03.442464","MEAN_MOTION":15.27616543,"ECCENTRICITY":8.268e-5,"INCLINATION":43.0014,"RA_OF_ASC_NODE":283.5143,"ARG_OF_PERICENTER":268.4472,"MEAN_ANOMALY":91.6285,"EPHEMERIS_TYPE":0,"CLASSIFICATION_TYPE":"U","NORAD_CAT_ID":62047,"ELEMENT_SET_NO":999,"REV_AT_EPOCH":5375,"BSTAR":0.0016783941,"MEAN_MOTION_DOT":0.00046265,"MEAN_MOTION_DDOT":0},{"OBJECT_NAME":"STARLINK-32599","OBJECT_ID":"2024-216S","EPOCH":"2025-10-29T23:56:24.905472","MEAN_MOTION":15.27620537,"ECCENTRICITY":0.00016316,"INCLINATION":43.002,"RA_OF_ASC_NODE":281.7,"ARG_OF_PERICENTER":251.5907,"MEAN_ANOMALY":108.4768,"EPHEMERIS_TYPE":0,"CLASSIFICATION_TYPE":"U","NORAD_CAT_ID":62048,"ELEMENT_SET_NO":999,"REV_AT_EPOCH":5380,"BSTAR":0.0018679928,"MEAN_MOTION_DOT":0.00051565,"MEAN_MOTION_DDOT":0},{"OBJECT_NAME":"STARLINK-32473","OBJECT_ID":"2024-216T","EPOCH":"2025-10-29T23:22:37.834464","MEAN_MOTION":15.27590533,"ECCENTRICITY":4.806e-5,"INCLINATION":43.0035,"RA_OF_ASC_NODE":274.5992,"ARG_OF_PERICENTER":314.9971,"MEAN_ANOMALY":45.0842,"EPHEMERIS_TYPE":0,"CLASSIFICATION_TYPE":"U","NORAD_CAT_ID":62049,"ELEMENT_SET_NO":999,"REV_AT_EPOCH":5272,"BSTAR":0.0014580289,"MEAN_MOTION_DOT":0.00040091,"MEAN_MOTION_DDOT":0},{"OBJECT_NAME":"STARLINK-32492","OBJECT_ID":"2024-216U","EPOCH":"2025-10-30T05:36:00.506880","MEAN_MOTION":15.27596065,"ECCENTRICITY":0.00010691,"INCLINATION":43.0005,"RA_OF_ASC_NODE":280.0265,"ARG_OF_PERICENTER":245.3792,"MEAN_ANOMALY":114.6949,"EPHEMERIS_TYPE":0,"CLASSIFICATION_TYPE":"U","NORAD_CAT_ID":62050,"ELEMENT_SET_NO":999,"REV_AT_EPOCH":5384,"BSTAR":0.0011958926,"MEAN_MOTION_DOT":0.00032809,"MEAN_MOTION_DDOT":0},{"OBJECT_NAME":"STARLINK-32496","OBJECT_ID":"2024-216V","EPOCH":"2025-10-30T00:11:11.619168","MEAN_MOTION":15.27615915,"ECCENTRICITY":0.0001269,"INCLINATION":43.0032,"RA_OF_ASC_NODE":281.7765,"ARG_OF_PERICENTER":207.3471,"MEAN_ANOMALY":152.7314,"EPHEMERIS_TYPE":0,"CLASSIFICATION_TYPE":"U","NORAD_CAT_ID":62051,"ELEMENT_SET_NO":999,"REV_AT_EPOCH":5380,"BSTAR":0.0012349423,"MEAN_MOTION_DOT":0.00033914,"MEAN_MOTION_DDOT":0},{"OBJECT_NAME":"STARLINK-32495","OBJECT_ID":"2024-216W","EPOCH":"2025-10-30T00:27:38.371968","MEAN_MOTION":15.27599739,"ECCENTRICITY":0.00022799,"INCLINATION":43.0011,"RA_OF_ASC_NODE":280.9953,"ARG_OF_PERICENTER":280.6894,"MEAN_ANOMALY":79.3701,"EPHEMERIS_TYPE":0,"CLASSIFICATION_TYPE":"U","NORAD_CAT_ID":62052,"ELEMENT_SET_NO":999,"REV_AT_EPOCH":5381,"BSTAR":0.0013186059,"MEAN_MOTION_DOT":0.00036224,"MEAN_MOTION_DDOT":0},{"OBJECT_NAME":"STARLINK-32494","OBJECT_ID":"2024-216X","EPOCH":"2025-10-30T05:47:06.758016","MEAN_MOTION":15.27602529,"ECCENTRICITY":6.391e-5,"INCLINATION":43.0012,"RA_OF_ASC_NODE":280.0813,"ARG_OF_PERICENTER":277.9563,"MEAN_ANOMALY":82.1216,"EPHEMERIS_TYPE":0,"CLASSIFICATION_TYPE":"U","NORAD_CAT_ID":62053,"ELEMENT_SET_NO":999,"REV_AT_EPOCH":5384,"BSTAR":0.0018025147,"MEAN_MOTION_DOT":0.00049708,"MEAN_MOTION_DDOT":0},{"OBJECT_NAME":"STARLINK-32408","OBJECT_ID":"2024-216Y","EPOCH":"2025-10-30T05:33:42.016320","MEAN_MOTION":15.27600856,"ECCENTRICITY":7.779e-5,"INCLINATION":43.003,"RA_OF_ASC_NODE":273.0923,"ARG_OF_PERICENTER":288.2004,"MEAN_ANOMALY":71.8763,"EPHEMERIS_TYPE":0,"CLASSIFICATION_TYPE":"U","NORAD_CAT_ID":62054,"ELEMENT_SET_NO":999,"REV_AT_EPOCH":5393,"BSTAR":0.0014050082,"MEAN_MOTION_DOT":0.00038628,"MEAN_MOTION_DDOT":0}]
