STARLINK-32480          
1 62039U 24216H   25302.65738888  .00032187  00000+0  11728-2 0  9991
2 62039  43.0035 276.5250 0002080 289.4858  70.5769 15.27616153 52679
STARLINK-32510          
1 62040U 24216J   25303.21164239  .00030978  00000+0  11299-2 0  9998
2 62040  43.0025 280.7262 0001099 246.7534 113.3202 15.27596682 53837
STARLINK-32456          
1 62041U 24216K   25302.66125075  .00027957  00000+0  10207-2 0  9993
2 62041  43.0026 276.5563 0001782 280.2915  79.7736 15.27608561 53838
STARLINK-32509          
1 62042U 24216L   25303.29840802  .00040095  00000+0  14577-2 0  9998
2 62042  43.0025 272.7377 0001208 276.2822  83.7892 15.27601376 53930
STARLINK-32491          
1 62043U 24216M   25303.20778825  .00048715  00000+0  17671-2 0  9990
2 62043  43.0023 280.7017 0001403 260.8469  99.2224 15.27599044 53830
STARLINK-32577          
1 62044U 24216N   25303.24361602  .00043807  00000+0  15915-2 0  9992
2 62044  43.0018 280.1020 0001232 124.8995 235.1972 15.27590082 53852
STARLINK-32618          
1 62045U 24216P   25302.65610931  .00035110  00000+0  12778-2 0  9991
2 62045  43.0021 276.5123 0001619 284.7371  75.3301 15.27618733 53835
STARLINK-32598          
1 62046U 24216Q   25302.99831395  .00053535  00000+0  19386-2 0  9991
2 62046  43.0009 273.9209 0001455 269.8021  90.2664 15.27619053 53892
STARLINK-32630          
1 62047U 24216R   25302.66670651  .00046265  00000+0  16784-2 0  9993
2 62047  43.0014 283.5143 0000826 268.4472  91.6285 15.27616543 53759
STARLINK-32599          
1 62048U 24216S   25302.99751048  .00051565  00000+0  18680-2 0  9996
2 62048  43.0020 281.7000 0001631 251.5907 108.4768 15.27620537 53807
STARLINK-32473          
1 62049U 24216T   25302.97404901  .00040091  00000+0  14580-2 0  9995
2 62049  43.0035 274.5992 0000480 314.9971  45.0842 15.27590533 52721
STARLINK-32492          
1 62050U 24216U   25303.23333920  .00032809  00000+0  11959-2 0  9994
2 62050  43.0005 280.0265 0001069 245.3792 114.6949 15.27596065 53848
STARLINK-32496          
1 62051U 24216V   25303.00777337  .00033914  00000+0  12349-2 0  9996
2 62051  43.0032 281.7765 0001269 207.3471 152.7314 15.27615915 53807
STARLINK-32495          
1 62052U 24216W   25303.01919412  .00036224  00000+0  13186-2 0  9997
2 62052  43.0011 280.9953 0002279 280.6894  79.3701 15.27599739 53810
STARLINK-32494          
1 62053U 24216X   25303.24105044  .00049708  00000+0  18025-2 0  9999
2 62053  43.0012 280.0813 0000639 277.9563  82.1216 15.27602529 53846
STARLINK-32408          
1 62054U 24216Y   25303.23173630  .00038628  00000+0  14050-2 0  9998
2 62054  43.0030 273.0923 0000777 288.2004  71.8763 15.27600856 53932
